STARLINK-33961          
1 64047U 25102AB  26196.94944196  .00001325  00000+0  11880-3 0  9992
2 64047  70.0009 151.0875 0003462 260.5772  99.4996 14.98335192 65046
STARLINK-11741 [DTC]    
1 64064U 25107A   26195.99347549  .00166368  00000+0  12674-2 0  9999
2 64064  43.0005  51.4259 0001940 272.7483  87.3163 15.70967952 67313
STARLINK-11709 [DTC]    
1 64065U 25107B   26196.92597404  .00112696  00000+0  86652-3 0  9994
2 64065  43.0025  45.5035 0003505 251.0529 108.9959 15.70928073 67462
STARLINK-11737 [DTC]    
1 64066U 25107C   26196.01989041  .00159201  00000+0  12207-2 0  9994
2 64066  42.9998  50.7451 0001550 286.8009  73.2688 15.70836718 67329
STARLINK-11726 [DTC]    
1 64067U 25107D   26196.96303054  .00096181  00000+0  74277-3 0  9996
2 64067  43.0004  44.9088 0002112 265.2998  94.7629 15.70891643 67471
STARLINK-11700 [DTC]    
1 64068U 25107E   26196.93751280  .00064233  00000+0  49929-3 0  9991
2 64068  43.0008  45.5981 0001226 287.5294  72.5440 15.70884311 67464
STARLINK-11649 [DTC]    
1 64069U 25107F   26196.95251778  .00106163  00000+0  81806-3 0  9990
2 64069  43.0008  45.7190 0004565 249.6048 110.4330 15.70895680 67465
STARLINK-11713 [DTC]    
1 64070U 25107G   26196.92067006  .00167197  00000+0  12734-2 0  9995
2 64070  43.0012  45.4608 0002543 268.5625  91.4951 15.70970752 67469
STARLINK-11719 [DTC]    
1 64071U 25107H   26196.93656919  .00099987  00000+0  77052-3 0  9990
2 64071  43.0002  45.5884 0002957 273.0400  87.0129 15.70925197 67468
STARLINK-11733 [DTC]    
1 64072U 25107J   26196.90473664  .00101081  00000+0  77893-3 0  9994
2 64072  43.0012  45.3314 0003286 250.8777 109.1735 15.70920280 67469
STARLINK-11729 [DTC]    
1 64073U 25107K   26196.00002315 -.00008196  00000+0 -60509-4 0  9999
2 64073  43.0009  51.3115 0001775 273.9587 153.2777 15.70811905  6000
STARLINK-11730 [DTC]    
1 64074U 25107L   26196.93128715  .00101359  00000+0  78119-3 0  9993
2 64074  43.0013  45.5455 0002537 260.3884  99.6697 15.70917909 67467
STARLINK-11723 [DTC]    
1 64075U 25107M   26196.72461113  .00036662  00000+0  28748-3 0  9990
2 64075  43.0009  46.5662 0002674 264.6845  95.3718 15.70876764 67437
STARLINK-11715 [DTC]    
1 64076U 25107N   26196.00396176  .00124894  00000+0  95924-3 0  9993
2 64076  43.0003  50.6098 0001640 264.6735  95.3945 15.70914878 67320
STARLINK-34201          
1 64077U 25107P   26196.10472206  .00001988  00000+0  81755-4 0  9990
2 64077  42.9956 202.2564 0000984 237.4229 122.6528 15.27575509 64510
STARLINK-34190          
1 64078U 25107Q   26196.47134113  .00010692  00000+0  39742-3 0  9993
2 64078  43.0018 199.8548 0002151 287.8633  72.1983 15.27585715 65662
STARLINK-34168          
1 64079U 25107R   26196.06103419  .00007244  00000+0  27252-3 0  9996
2 64079  43.0021 201.9289 0002198 286.4348  73.6262 15.27576421 65607
STARLINK-34098          
1 64080U 25107S   26196.06874252  .00005382  00000+0  20499-3 0  9995
2 64080  43.0040 201.9887 0002031 285.3750  74.6877 15.27578807 65608
STARLINK-34180          
1 64081U 25107T   26196.35212954  .00011662  00000+0  43249-3 0  9999
2 64081  42.9993 200.6733 0001903 265.8293  94.2341 15.27590231 65645
STARLINK-34171          
1 64082U 25107U   26196.05719579  .00011915  00000+0  44187-3 0  9995
2 64082  42.9983 201.8921 0001522 286.8699  73.1986 15.27573423 65608
STARLINK-34126          
1 64083U 25107V   26196.42779608  .00007982  00000+0  29903-3 0  9994
2 64083  43.0002 200.3824 0001685 255.3589 104.7075 15.27608536 64566
STARLINK-34157          
1 64084U 25107W   26196.06617265  .00007375  00000+0  27725-3 0  9991
2 64084  43.0018 201.9653 0002178 292.4303  67.6318 15.27579084 65580
STARLINK-34140          
1 64085U 25107X   26196.34828256  .00007490  00000+0  28146-3 0  9993
2 64085  42.9992 200.6442 0001763 275.7416  84.3234 15.27575586 65621
STARLINK-34132          
1 64086U 25107Y   26196.03162894  .00006303  00000+0  23826-3 0  9991
2 64086  42.9996 202.5661 0001805 269.5050  90.5595 15.27597942 65564
STARLINK-34178          
1 64096U 25110A   26196.90780507  .00010610  00000+0  35304-3 0  9999
2 64096  53.1594 151.1781 0001459 101.2757 258.8408 15.31711867 65512
STARLINK-34174          
1 64097U 25110B   26196.84930560  .00009911  00000+0  30407-3 0  9990
2 64097  53.1585 149.4014 0001798  67.7004 292.4189 15.34400197 65535
STARLINK-34146          
1 64098U 25110C   26196.30296252  .00010344  00000+0  31674-3 0  9994
2 64098  53.1579 151.6781 0001267 112.0180 248.0957 15.34411784 65449
STARLINK-34074          
1 64099U 25110D   26196.28256829  .00005238  00000+0  18883-3 0  9991
2 64099  53.1593 154.3838 0001017  71.7376 288.3735 15.30200828 65419
STARLINK-34082          
1 64100U 25110E   26196.28045639  .00000358  00000+0  24213-4 0  9992
2 64100  53.1592 154.3723 0001180  87.9118 272.2018 15.30190572 65418
STARLINK-34072          
1 64101U 25110F   26196.32512342  .00005498  00000+0  18873-3 0  9992
2 64101  53.1573 153.2339 0001346  93.1580 266.9575 15.31710881 65437
