OBJECT_NAME,OBJECT_ID,EPOCH,MEAN_MOTION,ECCENTRICITY,INCLINATION,RA_OF_ASC_NODE,ARG_OF_PERICENTER,MEAN_ANOMALY,EPHEMERIS_TYPE,CLASSIFICATION_TYPE,NORAD_CAT_ID,ELEMENT_SET_NO,REV_AT_EPOCH,BSTAR,MEAN_MOTION_DOT,MEAN_MOTION_DDOT
STARLINK-33961,2025-102AB,2026-07-15T22:47:11.785344,14.98335192,.00034629,70.0009,151.0875,260.5772,99.4996,0,U,64047,999,6504,.11880434E-3,.1325E-4,0
STARLINK-11741 [DTC],2025-107A,2026-07-14T23:50:36.282336,15.70967952,.00019404,43.0005,51.4259,272.7483,87.3163,0,U,64064,999,6731,.12674125E-2,.166368E-2,0
STARLINK-11709 [DTC],2025-107B,2026-07-15T22:13:24.157056,15.70928073,.00035056,43.0025,45.5035,251.0529,108.9959,0,U,64065,999,6746,.86651779E-3,.112696E-2,0
STARLINK-11737 [DTC],2025-107C,2026-07-15T00:28:38.531424,15.70836718,.00015503,42.9998,50.7451,286.8009,73.2688,0,U,64066,999,6732,.12207332E-2,.159201E-2,0
STARLINK-11726 [DTC],2025-107D,2026-07-15T23:06:45.838656,15.70891643,.00021122,43.0004,44.9088,265.2998,94.7629,0,U,64067,999,6747,.74276744E-3,.96181E-3,0
STARLINK-11700 [DTC],2025-107E,2026-07-15T22:30:01.105920,15.70884311,.0001226,43.0008,45.5981,287.5294,72.5440,0,U,64068,999,6746,.4992931E-3,.64233E-3,0
STARLINK-11649 [DTC],2025-107F,2026-07-15T22:51:37.536192,15.70895680,.0004565,43.0008,45.7190,249.6048,110.4330,0,U,64069,999,6746,.81806017E-3,.106163E-2,0
STARLINK-11713 [DTC],2025-107G,2026-07-15T22:05:45.893184,15.70970752,.00025437,43.0012,45.4608,268.5625,91.4951,0,U,64070,999,6746,.12733739E-2,.167197E-2,0
STARLINK-11719 [DTC],2025-107H,2026-07-15T22:28:39.578016,15.70925197,.00029573,43.0002,45.5884,273.0400,87.0129,0,U,64071,999,6746,.77051662E-3,.99987E-3,0
STARLINK-11733 [DTC],2025-107J,2026-07-15T21:42:49.245696,15.70920280,.0003286,43.0012,45.3314,250.8777,109.1735,0,U,64072,999,6746,.77892517E-3,.101081E-2,0
STARLINK-11729 [DTC],2025-107K,2026-07-15T00:00:02.000160,15.70811905,.00017755,43.0009,51.3115,273.9587,153.2777,0,U,64073,999,600,-.60508682E-4,-.8196E-4,0
STARLINK-11730 [DTC],2025-107L,2026-07-15T22:21:03.209760,15.70917909,.00025377,43.0013,45.5455,260.3884,99.6697,0,U,64074,999,6746,.78119035E-3,.101359E-2,0
STARLINK-11723 [DTC],2025-107M,2026-07-15T17:23:26.401632,15.70876764,.00026743,43.0009,46.5662,264.6845,95.3718,0,U,64075,999,6743,.28747737E-3,.36662E-3,0
STARLINK-11715 [DTC],2025-107N,2026-07-15T00:05:42.296064,15.70914878,.00016409,43.0003,50.6098,264.6735,95.3945,0,U,64076,999,6732,.95924227E-3,.124894E-2,0
STARLINK-34201,2025-107P,2026-07-15T02:30:47.985984,15.27575509,.00009845,42.9956,202.2564,237.4229,122.6528,0,U,64077,999,6451,.8175457E-4,.1988E-4,0
STARLINK-34190,2025-107Q,2026-07-15T11:18:43.873632,15.27585715,.00021516,43.0018,199.8548,287.8633,72.1983,0,U,64078,999,6566,.39742161E-3,.10692E-3,0
STARLINK-34168,2025-107R,2026-07-15T01:27:53.354016,15.27576421,.0002198,43.0021,201.9289,286.4348,73.6262,0,U,64079,999,6560,.27252164E-3,.7244E-4,0
STARLINK-34098,2025-107S,2026-07-15T01:38:59.353728,15.27578807,.00020313,43.0040,201.9887,285.3750,74.6877,0,U,64080,999,6560,.20498618E-3,.5382E-4,0
STARLINK-34180,2025-107T,2026-07-15T08:27:03.992256,15.27590231,.00019037,42.9993,200.6733,265.8293,94.2341,0,U,64081,999,6564,.43249199E-3,.11662E-3,0
STARLINK-34171,2025-107U,2026-07-15T01:22:21.716256,15.27573423,.00015226,42.9983,201.8921,286.8699,73.1986,0,U,64082,999,6560,.44187088E-3,.11915E-3,0
STARLINK-34126,2025-107V,2026-07-15T10:16:01.581312,15.27608536,.00016855,43.0002,200.3824,255.3589,104.7075,0,U,64083,999,6456,.29902651E-3,.7982E-4,0
STARLINK-34157,2025-107W,2026-07-15T01:35:17.316960,15.27579084,.00021786,43.0018,201.9653,292.4303,67.6318,0,U,64084,999,6558,.27725486E-3,.7375E-4,0
STARLINK-34140,2025-107X,2026-07-15T08:21:31.613184,15.27575586,.00017635,42.9992,200.6442,275.7416,84.3234,0,U,64085,999,6562,.28146228E-3,.749E-4,0
STARLINK-34132,2025-107Y,2026-07-15T00:45:32.740416,15.27597942,.00018058,42.9996,202.5661,269.5050,90.5595,0,U,64086,999,6556,.23825973E-3,.6303E-4,0
STARLINK-34178,2025-110A,2026-07-15T21:47:14.358048,15.31711867,.00014598,53.1594,151.1781,101.2757,258.8408,0,U,64096,999,6551,.35304217E-3,.1061E-3,0
STARLINK-34174,2025-110B,2026-07-15T20:23:00.003840,15.34400197,.0001798,53.1585,149.4014,67.7004,292.4189,0,U,64097,999,6553,.3040655E-3,.9911E-4,0
STARLINK-34146,2025-110C,2026-07-15T07:16:15.961728,15.34411784,.00012677,53.1579,151.6781,112.0180,248.0957,0,U,64098,999,6544,.31674396E-3,.10344E-3,0
STARLINK-34074,2025-110D,2026-07-15T06:46:53.900256,15.30200828,.00010177,53.1593,154.3838,71.7376,288.3735,0,U,64099,999,6541,.18882883E-3,.5238E-4,0
STARLINK-34082,2025-110E,2026-07-15T06:43:51.432096,15.30190572,.00011802,53.1592,154.3723,87.9118,272.2018,0,U,64100,999,6541,.24212565E-4,.358E-5,0
STARLINK-34072,2025-110F,2026-07-15T07:48:10.663488,15.31710881,.00013462,53.1573,153.2339,93.1580,266.9575,0,U,64101,999,6543,.18873347E-3,.5498E-4,0
